STARLINK-5153           
1 54088U 22136AP  25306.38334766  .00000908  00000+0  75139-4 0  9990
2 54088  53.2179 185.7277 0001552  90.1571 269.9599 15.08841075167762
STARLINK-5143           
1 54089U 22136AQ  25306.36123914  .00000932  00000+0  76678-4 0  9996
2 54089  53.2157 185.5892 0001422  92.1491 267.9664 15.08835641167762
STARLINK-5177           
1 54090U 22136AR  25305.96748436 -.00004823  00000+0 -28526-3 0  9998
2 54090  53.2162 187.3969 0001320  85.4452 274.6691 15.08826290167703
STARLINK-5221           
1 54091U 22136AS  25306.40169487  .00007177  00000+0  46898-3 0  9997
2 54091  53.2163 185.1385 0001540  96.2888 263.8280 15.08809102167774
STARLINK-5190           
1 54092U 22136AT  25307.76245713  .00034975  00000+0  57947-3 0  9998
2 54092  53.1837  64.9935 0002822 300.0714  60.0016 15.51854399169586
STARLINK-5213           
1 54093U 22136AU  25305.95274477  .00000220  00000+0  31943-4 0  9992
2 54093  53.2148 187.3057 0001479  90.6002 269.5160 15.08834410167709
STARLINK-5219           
1 54094U 22136AV  25305.96011390 -.00003038  00000+0 -17290-3 0  9997
2 54094  53.2162 187.3521 0001457  86.3032 273.8127 15.08837093167704
STARLINK-5193           
1 54095U 22136AW  25307.66761745  .00001132  00000+0  89229-4 0  9996
2 54095  53.2153 179.5283 0001999  86.0865 274.0355 15.08845975167967
STARLINK-5188           
1 54096U 22136AX  25305.95642855  .00000684  00000+0  61043-4 0  9992
2 54096  53.2158 187.3296 0001406  91.4895 268.6258 15.08838003167707
STARLINK-5197           
1 54097U 22136AY  25306.29546727 -.00001144  00000+0 -53825-4 0  9995
2 54097  53.2166 160.9482 0001654  95.8514 264.2667 15.08832023168109
STARLINK-5217           
1 54098U 22136AZ  25306.40640559  .00000085  00000+0  23405-4 0  9999
2 54098  53.2157 185.8549 0001319 102.7950 257.3190 15.08847384167761
STARLINK-5198           
1 54099U 22136BA  25307.65655543  .00000615  00000+0  56734-4 0  9997
2 54099  53.2166 179.4634 0001568  87.1933 272.9239 15.08843008167967
STARLINK-5185           
1 54100U 22136BB  25305.94905932 -.00000666  00000+0 -23780-4 0  9993
2 54100  53.2158 187.2834 0001474  89.0904 271.0257 15.08837588167703
STARLINK-5204           
1 54101U 22136BC  25305.35340547  .00000044  00000+0  20839-4 0  9994
2 54101  53.2158 175.0063 0001335  90.9303 269.1842 15.08833479167829
STARLINK-5179           
1 54102U 22136BD  25306.37597751  .00002524  00000+0  17662-3 0  9993
2 54102  53.2160 185.6730 0001463 101.8119 258.3037 15.08838928167763
STARLINK-5200           
1 54103U 22136BE  25305.88467083  .00001186  00000+0  92632-4 0  9997
2 54103  53.2152 167.6428 0001430  95.0256 265.0899 15.08834776167970
