[{"OBJECT_NAME":"STARLINK-5153","OBJECT_ID":"2022-136AP","EPOCH":"2025-11-02T09:12:01.237824","MEAN_MOTION":15.08841075,"ECCENTRICITY":0.0001552,"INCLINATION":53.2179,"RA_OF_ASC_NODE":185.7277,"ARG_OF_PERICENTER":90.1571,"MEAN_ANOMALY":269.9599,"EPHEMERIS_TYPE":0,"CLASSIFICATION_TYPE":"U","NORAD_CAT_ID":54088,"ELEMENT_SET_NO":999,"REV_AT_EPOCH":16776,"BSTAR":7.5139e-5,"MEAN_MOTION_DOT":9.08e-6,"MEAN_MOTION_DDOT":0},{"OBJECT_NAME":"STARLINK-5143","OBJECT_ID":"2022-136AQ","EPOCH":"2025-11-02T08:40:11.061696","MEAN_MOTION":15.08835641,"ECCENTRICITY":0.0001422,"INCLINATION":53.2157,"RA_OF_ASC_NODE":185.5892,"ARG_OF_PERICENTER":92.1491,"MEAN_ANOMALY":267.9664,"EPHEMERIS_TYPE":0,"CLASSIFICATION_TYPE":"U","NORAD_CAT_ID":54089,"ELEMENT_SET_NO":999,"REV_AT_EPOCH":16776,"BSTAR":7.6678e-5,"MEAN_MOTION_DOT":9.32e-6,"MEAN_MOTION_DDOT":0},{"OBJECT_NAME":"STARLINK-5177","OBJECT_ID":"2022-136AR","EPOCH":"2025-11-01T23:13:10.648704","MEAN_MOTION":15.0882629,"ECCENTRICITY":0.00013204,"INCLINATION":53.2162,"RA_OF_ASC_NODE":187.3969,"ARG_OF_PERICENTER":85.4452,"MEAN_ANOMALY":274.6691,"EPHEMERIS_TYPE":0,"CLASSIFICATION_TYPE":"U","NORAD_CAT_ID":54090,"ELEMENT_SET_NO":999,"REV_AT_EPOCH":16770,"BSTAR":-0.0002852561,"MEAN_MOTION_DOT":-4.823e-5,"MEAN_MOTION_DDOT":0},{"OBJECT_NAME":"STARLINK-5221","OBJECT_ID":"2022-136AS","EPOCH":"2025-11-02T09:38:26.436768","MEAN_MOTION":15.08809102,"ECCENTRICITY":0.000154,"INCLINATION":53.2163,"RA_OF_ASC_NODE":185.1385,"ARG_OF_PERICENTER":96.2888,"MEAN_ANOMALY":263.828,"EPHEMERIS_TYPE":0,"CLASSIFICATION_TYPE":"U","NORAD_CAT_ID":54091,"ELEMENT_SET_NO":999,"REV_AT_EPOCH":16777,"BSTAR":0.00046898,"MEAN_MOTION_DOT":7.177e-5,"MEAN_MOTION_DDOT":0},{"OBJECT_NAME":"STARLINK-5190","OBJECT_ID":"2022-136AT","EPOCH":"2025-11-03T18:17:56.296032","MEAN_MOTION":15.51854399,"ECCENTRICITY":0.0002822,"INCLINATION":53.1837,"RA_OF_ASC_NODE":64.9935,"ARG_OF_PERICENTER":300.0714,"MEAN_ANOMALY":60.0016,"EPHEMERIS_TYPE":0,"CLASSIFICATION_TYPE":"U","NORAD_CAT_ID":54092,"ELEMENT_SET_NO":999,"REV_AT_EPOCH":16958,"BSTAR":0.00057947,"MEAN_MOTION_DOT":0.00034975,"MEAN_MOTION_DDOT":0},{"OBJECT_NAME":"STARLINK-5213","OBJECT_ID":"2022-136AU","EPOCH":"2025-11-01T22:51:57.148128","MEAN_MOTION":15.0883441,"ECCENTRICITY":0.00014799,"INCLINATION":53.2148,"RA_OF_ASC_NODE":187.3057,"ARG_OF_PERICENTER":90.6002,"MEAN_ANOMALY":269.516,"EPHEMERIS_TYPE":0,"CLASSIFICATION_TYPE":"U","NORAD_CAT_ID":54093,"ELEMENT_SET_NO":999,"REV_AT_EPOCH":16770,"BSTAR":3.1942867e-5,"MEAN_MOTION_DOT":2.2e-6,"MEAN_MOTION_DDOT":0},{"OBJECT_NAME":"STARLINK-5219","OBJECT_ID":"2022-136AV","EPOCH":"2025-11-01T23:02:33.840960","MEAN_MOTION":15.08837093,"ECCENTRICITY":0.00014577,"INCLINATION":53.2162,"RA_OF_ASC_NODE":187.3521,"ARG_OF_PERICENTER":86.3032,"MEAN_ANOMALY":273.8127,"EPHEMERIS_TYPE":0,"CLASSIFICATION_TYPE":"U","NORAD_CAT_ID":54094,"ELEMENT_SET_NO":999,"REV_AT_EPOCH":16770,"BSTAR":-0.00017290169,"MEAN_MOTION_DOT":-3.038e-5,"MEAN_MOTION_DDOT":0},{"OBJECT_NAME":"STARLINK-5193","OBJECT_ID":"2022-136AW","EPOCH":"2025-11-03T16:01:22.147680","MEAN_MOTION":15.08845975,"ECCENTRICITY":0.0001999,"INCLINATION":53.2153,"RA_OF_ASC_NODE":179.5283,"ARG_OF_PERICENTER":86.0865,"MEAN_ANOMALY":274.0355,"EPHEMERIS_TYPE":0,"CLASSIFICATION_TYPE":"U","NORAD_CAT_ID":54095,"ELEMENT_SET_NO":999,"REV_AT_EPOCH":16796,"BSTAR":8.9229e-5,"MEAN_MOTION_DOT":1.132e-5,"MEAN_MOTION_DDOT":0},{"OBJECT_NAME":"STARLINK-5188","OBJECT_ID":"2022-136AX","EPOCH":"2025-11-01T22:57:15.426720","MEAN_MOTION":15.08838003,"ECCENTRICITY":0.00014065,"INCLINATION":53.2158,"RA_OF_ASC_NODE":187.3296,"ARG_OF_PERICENTER":91.4895,"MEAN_ANOMALY":268.6258,"EPHEMERIS_TYPE":0,"CLASSIFICATION_TYPE":"U","NORAD_CAT_ID":54096,"ELEMENT_SET_NO":999,"REV_AT_EPOCH":16770,"BSTAR":6.1042565e-5,"MEAN_MOTION_DOT":6.84e-6,"MEAN_MOTION_DDOT":0},{"OBJECT_NAME":"STARLINK-5197","OBJECT_ID":"2022-136AY","EPOCH":"2025-11-02T07:05:28.372128","MEAN_MOTION":15.08832023,"ECCENTRICITY":0.0001654,"INCLINATION":53.2166,"RA_OF_ASC_NODE":160.9482,"ARG_OF_PERICENTER":95.8514,"MEAN_ANOMALY":264.2667,"EPHEMERIS_TYPE":0,"CLASSIFICATION_TYPE":"U","NORAD_CAT_ID":54097,"ELEMENT_SET_NO":999,"REV_AT_EPOCH":16810,"BSTAR":-5.3825e-5,"MEAN_MOTION_DOT":-1.144e-5,"MEAN_MOTION_DDOT":0},{"OBJECT_NAME":"STARLINK-5217","OBJECT_ID":"2022-136AZ","EPOCH":"2025-11-02T09:45:13.442976","MEAN_MOTION":15.08847384,"ECCENTRICITY":0.0001319,"INCLINATION":53.2157,"RA_OF_ASC_NODE":185.8549,"ARG_OF_PERICENTER":102.795,"MEAN_ANOMALY":257.319,"EPHEMERIS_TYPE":0,"CLASSIFICATION_TYPE":"U","NORAD_CAT_ID":54098,"ELEMENT_SET_NO":999,"REV_AT_EPOCH":16776,"BSTAR":2.3405e-5,"MEAN_MOTION_DOT":8.5e-7,"MEAN_MOTION_DDOT":0},{"OBJECT_NAME":"STARLINK-5198","OBJECT_ID":"2022-136BA","EPOCH":"2025-11-03T15:45:26.389152","MEAN_MOTION":15.08843008,"ECCENTRICITY":0.0001568,"INCLINATION":53.2166,"RA_OF_ASC_NODE":179.4634,"ARG_OF_PERICENTER":87.1933,"MEAN_ANOMALY":272.9239,"EPHEMERIS_TYPE":0,"CLASSIFICATION_TYPE":"U","NORAD_CAT_ID":54099,"ELEMENT_SET_NO":999,"REV_AT_EPOCH":16796,"BSTAR":5.6734e-5,"MEAN_MOTION_DOT":6.15e-6,"MEAN_MOTION_DDOT":0},{"OBJECT_NAME":"STARLINK-5185","OBJECT_ID":"2022-136BB","EPOCH":"2025-11-01T22:46:38.725248","MEAN_MOTION":15.08837588,"ECCENTRICITY":0.00014746,"INCLINATION":53.2158,"RA_OF_ASC_NODE":187.2834,"ARG_OF_PERICENTER":89.0904,"MEAN_ANOMALY":271.0257,"EPHEMERIS_TYPE":0,"CLASSIFICATION_TYPE":"U","NORAD_CAT_ID":54100,"ELEMENT_SET_NO":999,"REV_AT_EPOCH":16770,"BSTAR":-2.3779925e-5,"MEAN_MOTION_DOT":-6.66e-6,"MEAN_MOTION_DDOT":0},{"OBJECT_NAME":"STARLINK-5204","OBJECT_ID":"2022-136BC","EPOCH":"2025-11-01T08:28:54.232608","MEAN_MOTION":15.08833479,"ECCENTRICITY":0.00013353,"INCLINATION":53.2158,"RA_OF_ASC_NODE":175.0063,"ARG_OF_PERICENTER":90.9303,"MEAN_ANOMALY":269.1842,"EPHEMERIS_TYPE":0,"CLASSIFICATION_TYPE":"U","NORAD_CAT_ID":54101,"ELEMENT_SET_NO":999,"REV_AT_EPOCH":16782,"BSTAR":2.0839039e-5,"MEAN_MOTION_DOT":4.4e-7,"MEAN_MOTION_DDOT":0},{"OBJECT_NAME":"STARLINK-5179","OBJECT_ID":"2022-136BD","EPOCH":"2025-11-02T09:01:24.456864","MEAN_MOTION":15.08838928,"ECCENTRICITY":0.0001463,"INCLINATION":53.216,"RA_OF_ASC_NODE":185.673,"ARG_OF_PERICENTER":101.8119,"MEAN_ANOMALY":258.3037,"EPHEMERIS_TYPE":0,"CLASSIFICATION_TYPE":"U","NORAD_CAT_ID":54102,"ELEMENT_SET_NO":999,"REV_AT_EPOCH":16776,"BSTAR":0.00017662,"MEAN_MOTION_DOT":2.524e-5,"MEAN_MOTION_DDOT":0},{"OBJECT_NAME":"STARLINK-5200","OBJECT_ID":"2022-136BE","EPOCH":"2025-11-01T21:13:55.559712","MEAN_MOTION":15.08834776,"ECCENTRICITY":0.00014301,"INCLINATION":53.2152,"RA_OF_ASC_NODE":167.6428,"ARG_OF_PERICENTER":95.0256,"MEAN_ANOMALY":265.0899,"EPHEMERIS_TYPE":0,"CLASSIFICATION_TYPE":"U","NORAD_CAT_ID":54103,"ELEMENT_SET_NO":999,"REV_AT_EPOCH":16797,"BSTAR":9.2631967e-5,"MEAN_MOTION_DOT":1.186e-5,"MEAN_MOTION_DDOT":0}]
